INTELSAT 10 (IS-10)     
1 26766U 01019A   26035.04021726 -.00000036  00000+0  00000+0 0  9994
2 26766   8.7570  60.6079 0008434 252.6678 104.5252  0.99072725 44254
INTELSAT 902 (IS-902)   
1 26900U 01039A   26045.03290372 -.00000279  00000+0  00000+0 0  9990
2 26900   5.8063  73.2959 0004626 252.5588 139.9256  1.00271261 89461
INTELSAT 904 (IS-904)   
1 27380U 02007A   26045.39309215 -.00000222  00000+0  00000+0 0  9993
2 27380   6.6116  70.6680 0005316 300.6750 243.0484  1.00270572 50537
DIRECTV 5 (TEMPO 1)     
1 27426U 02023A   26045.23492469 -.00000053  00000+0  00000+0 0  9991
2 27426   4.5624  76.8653 0003575 266.9649 134.8857  1.00273015 86897
INTELSAT 905 (IS-905)   
1 27438U 02027A   26044.15982314  .00000098  00000+0  00000+0 0  9999
2 27438   6.4410  71.3049 0002968 265.5318  86.6977  1.00274255 50116
GALAXY 3C (G-3C)        
1 27445U 02030A   26045.49953556 -.00000148  00000+0  00000+0 0  9992
2 27445   3.4191  79.7220 0000986  39.3745 110.4064  1.00272074 45269
INTELSAT 906 (IS-906)   
1 27513U 02041A   26045.19817786  .00000017  00000+0  00000+0 0  9995
2 27513   5.4903  74.4477 0003896 229.4550 335.7902  1.00271857 85796
GALAXY 13 (HORIZONS-1)  
1 27954U 03044A   26045.44101906  .00000138  00000+0  00000+0 0  9990
2 27954   1.1009  85.5989 0002213 236.1830 191.4115  1.00270076 45346
INTELSAT 10-02          
1 28358U 04022A   26045.39924552 -.00000006  00000+0  00000+0 0  9995
2 28358   0.0124 100.7791 0000820 248.0286 298.3301  1.00270611 79325
DIRECTV 8               
1 28659U 05019A   26044.52004742  .00000008  00000+0  00000+0 0  9991
2 28659   0.0127 120.5440 0003348 228.7569 222.4007  1.00272471 75839
GALAXY 28 (G-28)        
1 28702U 05022A   26043.32582560 -.00000165  00000+0  00000+0 0  9995
2 28702   2.9769  80.5237 0002164 250.9070 260.9651  1.00479535 50722
GALAXY 16 (G-16)        
1 29236U 06023A   26045.45107245 -.00000121  00000+0  00000+0 0  9991
2 29236   0.0264 143.6443 0002746 196.8218 227.3531  1.00271056 71749
DIRECTV 9S              
1 29494U 06043A   26045.45063912 -.00000109  00000+0  00000+0 0  9997
2 29494   2.1026  82.4600 0003122 258.4026 224.6122  1.00271833 50151
GALAXY 17 (G-17)        
1 31307U 07016B   26045.45384580 -.00000202  00000+0  00000+0 0  9995
2 31307   2.6595  81.4979 0003853 229.6152 271.7230  1.00270812 68576
DIRECTV 10              
1 31862U 07032A   26045.51294664 -.00000187  00000+0  00000+0 0  9991
2 31862   0.0850 108.3561 0006148 262.3989 132.6685  0.98340217 44369
INTELSAT 11 (IS-11)     
1 32253U 07044B   26045.45991251 -.00000187  00000+0  00000+0 0  9998
2 32253   3.2442  80.2066 0006055 196.6957 338.6793  0.99050893 67233
HORIZONS-2              
1 32388U 07063B   26045.45609914 -.00000249  00000+0  00000+0 0  9999
2 32388   2.2844  82.2050 0003202 240.6653 271.9717  1.00270095 66589
DIRECTV 11              
1 32729U 08013A   26045.45107245 -.00000121  00000+0  00000+0 0  9993
2 32729   0.0062 262.6648 0000279 107.9554 197.0321  1.00274514 44360
GALAXY 18 (G-18)        
1 32951U 08024A   26045.44630576  .00000031  00000+0  00000+0 0  9998
2 32951   0.0166  95.9106 0002898 237.7290 208.4763  1.00272758 44620
INTELSAT 25 (IS-25)     
1 33153U 08034A   26045.39317884 -.00000219  00000+0  00000+0 0  9991
2 33153   2.3896  81.8777 0004063 231.4781 301.0896  1.00272931 64464
GALAXY 19 (G-19)        
1 33376U 08045A   26045.45150580 -.00000133  00000+0  00000+0 0  9990
2 33376   0.0557 269.5372 0002651  62.9653 237.4881  1.00270350 63673
FM-5                    
1 35493U 09034A   26045.20114240 -.00000194  00000+0  00000+0 0  9994
2 35493   0.0331 261.2018 0000407 280.5016 308.7624  1.00271271 45411
INTELSAT 14 (IS-14)     
1 36097U 09064A   26045.46181919  .00000000  00000+0  00000+0 0  9998
2 36097   0.0260 102.5565 0002329 239.2760 283.9006  1.00269512 59372
INTELSAT 15 (IS-15)     
1 36106U 09067A   26045.53030694 -.00000180  00000+0  00000+0 0  9993
2 36106   0.0128  89.3648 0002169 241.0192  90.2114  1.00271496 39991
DIRECTV 12              
1 36131U 09075A   26045.45037911 -.00000098  00000+0  00000+0 0  9998
2 36131   0.0059 311.6198 0000361  87.7929 164.4629  1.00273472 45323
INTELSAT 16 (IS-16)     
1 36397U 10006A   26045.45557914 -.00000239  00000+0  00000+0 0  9995
2 36397   0.0176  81.7286 0001938 251.0190 259.5201  1.00271658 58428
XM-5                    
1 37185U 10053A   26045.23397134 -.00000017  00000+0  00000+0 0  9999
2 37185   0.0655 273.9717 0003141 246.4438 312.8509  1.00272227 56257
INTELSAT 17 (IS-17)     
1 37238U 10065B   26045.48383264  .00000004  00000+0  00000+0 0  9992
2 37238   0.0144 140.1570 0002665 193.3427  51.1476  1.00270944 52019
INTELSAT 28 (IS-28)     
1 37392U 11016A   26045.44003034 -.00000220  00000+0  00000+0 0  9991
2 37392   1.4875  84.2650 0004112 239.7846 307.0899  1.00271887 52055
INTELSAT 18 (IS-18)     
1 37834U 11056A   26045.51294664  .00000058  00000+0  00000+0 0  9993
2 37834   0.0432 270.1655 0001709  58.0406 180.9676  1.00273423 52581
INTELSAT 22 (IS-22)     
1 38098U 12011A   26045.48504596 -.00000053  00000+0  00000+0 0  9998
2 38098   0.0226  89.6529 0001763 234.9891  66.5485  1.00271483  5951
INTELSAT 19 (IS-19)     
1 38356U 12030A   26045.51850411 -.00000051  00000+0  00000+0 0  9998
2 38356   0.0150  97.8441 0002877 233.5096 165.8257  1.00272325 49221
INTELSAT 20 (IS-20)     
1 38740U 12043A   26045.48426596 -.00000018  00000+0  00000+0 0  9991
2 38740   0.0217 111.4967 0002211  54.2497 221.5484  1.00270407 49516
INTELSAT 21 (IS-21)     
1 38749U 12045A   26045.45921917  .00000000  00000+0  00000+0 0  9996
2 38749   0.0231 115.3627 0001789 225.6032 270.8430  1.00268861 49299
INTELSAT 23 (IS-23)     
1 38867U 12057A   26045.46017251 -.00000279  00000+0  00000+0 0  9997
2 38867   0.0632 266.0322 0001540  54.4798 296.5954  1.00268588 48722
FM-6                    
1 39360U 13058A   26045.23371134 -.00000011  00000+0  00000+0 0  9990
2 39360   0.0262 108.3536 0002767  75.8679 287.9667  1.00272340 44847
INTELSAT 30 (IS-30)     
1 40271U 14062A   26044.88138360 -.00000145  00000+0  00000+0 0  9999
2 40271   0.0150  71.4405 0001573  33.3061 261.3902  1.00272329  5559
DIRECTV 14              
1 40333U 14078B   26045.45107245 -.00000120  00000+0  00000+0 0  9990
2 40333   0.0197  93.8107 0000502  50.4444  63.3390  1.00270093 40817
DIRECTV 15              
1 40663U 15026A   26045.45037911 -.00000097  00000+0  00000+0 0  9995
2 40663   0.0169  96.3227 0000221  79.4451  27.9398  1.00273407 39230
SKY MEXICO-1            
1 40664U 15026B   26045.45514582  .00000000  00000+0  00000+0 0  9993
2 40664   0.0234 113.0261 0001980 230.9555 245.5986  1.00269163 39225
INTELSAT 34 (IS-34)     
1 40874U 15039A   26045.14889859 -.00000280  00000+0  00000+0 0  9999
2 40874   0.0054  99.4225 0000061 298.8576 103.9846  1.00274627 38390
INTELSAT 31 (IS-31)     
1 41581U 16035A   26045.12092794 -.00000145  00000+0  00000+0 0  9994
2 41581   0.0404 258.5890 0001839 316.1201 237.8865  1.00272269 35445
INTELSAT 36 (IS-36)     
1 41747U 16053A   26045.19904453 -.00000019  00000+0  00000+0 0  9999
2 41747   0.0148  68.2503 0001198 261.7316 314.3759  1.00272163 34727
INTELSAT 32E (IS-32E)   
1 41945U 17007B   26045.46216584 -.00000264  00000+0  00000+0 0  9992
2 41945   0.0130  98.4585 0000853 285.6882 243.5142  1.00271907 32994
INTELSAT 35E (IS-35E)   
1 42818U 17041A   26045.44003034 -.00000233  00000+0  00000+0 0  9998
2 42818   0.0351 254.7113 0002476  82.6628 290.9693  1.00272005 31580
INTELSAT 37E (IS-37E)   
1 42950U 17059A   26045.42892047  .00000000  00000+0  00000+0 0  9993
2 42950   0.0276 111.4382 0002181 210.7624 318.6644  1.00269579 30836
AZERSPACE 2 (IS-38)     
1 43632U 18074A   26045.47967262  .00000000  00000+0  00000+0 0  9996
2 43632   0.0261 108.8082 0001350 234.1852  19.3046  1.00270443 27216
HORIZONS-3E             
1 43633U 18074B   26045.51850411 -.00000026  00000+0  00000+0 0  9998
2 43633   0.0414 270.7900 0000567  74.4081 154.9797  1.00270707 27114
AT&T T-16               
1 44333U 19034A   26045.45072579 -.00000110  00000+0  00000+0 0  9991
2 44333   0.0169  94.8418 0001032  73.0287  37.9815  1.00274656 24406
INTELSAT 39 (IS-39)     
1 44476U 19049B   26045.41155227  .00000000  00000+0  00000+0 0  9990
2 44476   0.0256 111.5731 0000878  32.9841 209.9826  1.00269439 23891
GALAXY 30 (G-30)        
1 46114U 20056C   26045.44595909  .00000000  00000+0  00000+0 0  9999
2 46114   0.0267 110.1543 0001901 235.6353 194.2361  1.00271508 20064
GALAXY 33 (G-33)        
1 54026U 22128A   26045.44439909  .00000084  00000+0  00000+0 0  9991
2 54026   0.0133  83.4358 0001624 248.8359 199.1599  1.00271736 12518
GALAXY 34 (G-34)        
1 54027U 22128B   26045.44517909  .00000065  00000+0  00000+0 0  9998
2 54027   0.0202  89.6359 0001422 231.5323 214.5320  1.00271044 12685
GALAXY 31 (G-31)        
1 54243U 22153A   26045.51295068  .00000019  00000+0  00000+0 0  9992
2 54243   0.0187 118.6701 0001324 223.7040 225.7984  1.00271651  5902
GALAXY 32 (G-32)        
1 54244U 22153B   26045.45271913 -.00000169  00000+0  00000+0 0  9996
2 54244   0.0193  79.2790 0002821 269.8233 227.3257  1.00270917 11911
GALAXY 35 (G-35)        
1 54741U 22170A   26045.45228580 -.00000157  00000+0  00000+0 0  9996
2 54741   0.0143 120.6868 0001783 208.2194 245.2628  1.00272884 11662
GALAXY 36 (G-36)        
1 54742U 22170B   26045.45306580 -.00000180  00000+0  00000+0 0  9990
2 54742   0.0141 159.3726 0001779 237.0701 182.1163  1.00271572 11545
GALAXY 37 (G-37)        
1 57493U 23112A   26045.44552576  .00000000  00000+0  00000+0 0  9990
2 57493   0.0233 106.9223 0001914 228.1621 202.7739  1.00270093  9313
